GLOBALSTAR M045         
1 25676U 99019A   24143.50163380 -.00000040  00000+0  47473-3 0  9996
2 25676  51.9990 338.7832 0001093 123.9337 256.2011 12.27037528145437
GLOBALSTAR M019         
1 25677U 99019B   24143.23760042 -.00000028  00000+0  64525-3 0  9998
2 25677  51.9884  82.3936 0000580 280.0401 228.2217 12.13857603137666
GLOBALSTAR M044         
1 25678U 99019C   24143.50048406 -.00000056  00000+0  38629-3 0  9999
2 25678  51.9990 344.1499 0006385  13.3356 358.1372 11.90233268124809
GLOBALSTAR M042         
1 25679U 99019D   24143.29490719 -.00000077  00000+0  14414-3 0  9993
2 25679  52.0023  74.4304 0002423 210.1327 319.1709 12.22062091137468
GLOBALSTAR M025         
1 25770U 99031A   24143.06840402 -.00000068  00000+0 -57908-5 0  9990
2 25770  51.9840 345.3216 0001256 181.4336 353.4748 11.22550680437787
GLOBALSTAR M049         
1 25771U 99031B   24142.91259621 -.00000064  00000+0  46775-4 0  9995
2 25771  51.9910   0.7823 0003456  77.7095 282.4089 11.12109066 73899
GLOBALSTAR M047         
1 25772U 99031C   24143.12193619 -.00000057  00000+0  34650-3 0  9994
2 25772  51.9867  34.6368 0016157 313.6023  46.3442 11.31920659426821
GLOBALSTAR M052         
1 25773U 99031D   24143.30963139 -.00000028  00000+0  12626-2 0  9993
2 25773  51.9842 114.0519 0002677 252.5792 256.8849 11.15051278434903
